start=new Date('2021-09-17T00:00:00.000Z').valueOf();
sats=[{"ELEMENT_SET_NO":"999","ECCENTRICITY":"0.00008580","EPOCH":"2021-09-16T13:59:01.141440","NORAD_CAT_ID":"46543","TIME_SYSTEM":"UTC","INCLINATION":"53.0544","DECAY_DATE":null,"EPHEMERIS_TYPE":"0","REV_AT_EPOCH":"5305","MEAN_MOTION_DOT":"0.00001041","FILE":"3117438","CENTER_NAME":"EARTH","BSTAR":"0.00008875000000","MEAN_ANOMALY":"241.3968","PERIAPSIS":"546.626","REF_FRAME":"TEME","SITE":"AFETR","APOAPSIS":"547.815","TLE_LINE1":"1 46543U 20070M   21259.58265210  .00001041  00000-0  88750-4 0  9997","OBJECT_NAME":"STARLINK-1693","OBJECT_TYPE":"PAYLOAD","ARG_OF_PERICENTER":"118.7108","RA_OF_ASC_NODE":"316.9004","TLE_LINE2":"2 46543  53.0544 316.9004 0000858 118.7108 241.3968 15.06397672 53057","LAUNCH_DATE":"2020-10-06","CLASSIFICATION_TYPE":"U","PERIOD":"95.592","OBJECT_ID":"2020-070M","MEAN_MOTION_DDOT":"0.0000000000000","MEAN_ELEMENT_THEORY":"SGP4","RCS_SIZE":"LARGE","COUNTRY_CODE":"US","MEAN_MOTION":"15.06397672","GP_ID":"184851370","SEMIMAJOR_AXIS":"6925.356"},{"ELEMENT_SET_NO":"999","ECCENTRICITY":"0.00010330","EPOCH":"2021-09-16T13:53:04.449408","CENTER_NAME":"EARTH","FILE":"3117438","BSTAR":"0.00018230000000","PERIAPSIS":"546.522","MEAN_ANOMALY":"264.4620","NORAD_CAT_ID":"46544","TIME_SYSTEM":"UTC","REV_AT_EPOCH":"5326","DECAY_DATE":null,"INCLINATION":"53.0544","EPHEMERIS_TYPE":"0","MEAN_MOTION_DOT":"0.00002434","LAUNCH_DATE":"2020-10-06","TLE_LINE2":"2 46544  53.0544 301.9155 0001033  95.6486 264.4620 15.06392176 53265","CLASSIFICATION_TYPE":"U","OBJECT_ID":"2020-070N","MEAN_MOTION_DDOT":"0.0000000000000","PERIOD":"95.593","RCS_SIZE":"LARGE","MEAN_ELEMENT_THEORY":"SGP4","APOAPSIS":"547.953","REF_FRAME":"TEME","SITE":"AFETR","TLE_LINE1":"1 46544U 20070N   21259.57852372  .00002434  00000-0  18230-3 0  9990","OBJECT_TYPE":"PAYLOAD","ARG_OF_PERICENTER":"95.6486","OBJECT_NAME":"STARLINK-1694","RA_OF_ASC_NODE":"301.9155","SEMIMAJOR_AXIS":"6925.373","MEAN_MOTION":"15.06392176","COUNTRY_CODE":"US","GP_ID":"184852119"},{"ELEMENT_SET_NO":"999","ECCENTRICITY":"0.00009750","EPOCH":"2021-09-16T11:41:02.185440","TIME_SYSTEM":"UTC","NORAD_CAT_ID":"46545","MEAN_MOTION_DOT":"0.00001032","DECAY_DATE":null,"EPHEMERIS_TYPE":"0","INCLINATION":"53.0552","REV_AT_EPOCH":"5303","BSTAR":"0.00008820300000","FILE":"3117121","CENTER_NAME":"EARTH","MEAN_ANOMALY":"265.9659","PERIAPSIS":"546.567","TLE_LINE1":"1 46545U 20070P   21259.48683085  .00001032  00000-0  88203-4 0  9995","SITE":"AFETR","REF_FRAME":"TEME","APOAPSIS":"547.917","RA_OF_ASC_NODE":"317.3385","OBJECT_NAME":"STARLINK-1696","OBJECT_TYPE":"PAYLOAD","ARG_OF_PERICENTER":"94.1441","CLASSIFICATION_TYPE":"U","TLE_LINE2":"2 46545  53.0552 317.3385 0000975  94.1441 265.9659 15.06390791 53034","LAUNCH_DATE":"2020-10-06","RCS_SIZE":"LARGE","MEAN_ELEMENT_THEORY":"SGP4","PERIOD":"95.593","OBJECT_ID":"2020-070P","MEAN_MOTION_DDOT":"0.0000000000000","MEAN_MOTION":"15.06390791","COUNTRY_CODE":"US","GP_ID":"184822665","SEMIMAJOR_AXIS":"6925.377"},{"OBJECT_TYPE":"PAYLOAD","OBJECT_NAME":"STARLINK-1697","ARG_OF_PERICENTER":"114.6277","RA_OF_ASC_NODE":"317.3971","APOAPSIS":"547.730","SITE":"AFETR","REF_FRAME":"TEME","TLE_LINE1":"1 46546U 20070Q   21259.47207651  .00001348  00000-0  10939-3 0  9996","MEAN_MOTION_DDOT":"0.0000000000000","OBJECT_ID":"2020-070Q","PERIOD":"95.593","MEAN_ELEMENT_THEORY":"SGP4","RCS_SIZE":"LARGE","TLE_LINE2":"2 46546  53.0545 317.3971 0000704 114.6277 245.4785 15.06390565 53035","LAUNCH_DATE":"2020-10-06","CLASSIFICATION_TYPE":"U","GP_ID":"184822416","MEAN_MOTION":"15.06390565","COUNTRY_CODE":"US","SEMIMAJOR_AXIS":"6925.377","ECCENTRICITY":"0.00007040","EPOCH":"2021-09-16T11:19:47.410464","ELEMENT_SET_NO":"999","REV_AT_EPOCH":"5303","DECAY_DATE":null,"EPHEMERIS_TYPE":"0","INCLINATION":"53.0545","MEAN_MOTION_DOT":"0.00001348","NORAD_CAT_ID":"46546","TIME_SYSTEM":"UTC","PERIAPSIS":"546.755","MEAN_ANOMALY":"245.4785","CENTER_NAME":"EARTH","FILE":"3117121","BSTAR":"0.00010939000000"},{"SEMIMAJOR_AXIS":"6925.379","GP_ID":"184851870","COUNTRY_CODE":"US","MEAN_MOTION":"15.06390020","PERIOD":"95.593","OBJECT_ID":"2020-070R","MEAN_MOTION_DDOT":"0.0000000000000","MEAN_ELEMENT_THEORY":"SGP4","RCS_SIZE":"LARGE","LAUNCH_DATE":"2020-10-06","TLE_LINE2":"2 46547  53.0544 317.2729 0001076  99.6377 260.4734 15.06390020 53049","CLASSIFICATION_TYPE":"U","OBJECT_TYPE":"PAYLOAD","ARG_OF_PERICENTER":"99.6377","OBJECT_NAME":"STARLINK-1698","RA_OF_ASC_NODE":"317.2729","REF_FRAME":"TEME","SITE":"AFETR","APOAPSIS":"547.989","TLE_LINE1":"1 46547U 20070R   21259.50157388 -.00000785  00000-0 -33855-4 0  9991","MEAN_ANOMALY":"260.4734","PERIAPSIS":"546.499","FILE":"3117438","CENTER_NAME":"EARTH","BSTAR":"-0.00003385500000","DECAY_DATE":null,"EPHEMERIS_TYPE":"0","INCLINATION":"53.0544","REV_AT_EPOCH":"5304","MEAN_MOTION_DOT":"-0.00000785","NORAD_CAT_ID":"46547","TIME_SYSTEM":"UTC","EPOCH":"2021-09-16T12:02:15.983232","ECCENTRICITY":"0.00010760","ELEMENT_SET_NO":"999"},{"MEAN_MOTION_DOT":"-0.00000172","REV_AT_EPOCH":"5306","INCLINATION":"53.0565","DECAY_DATE":null,"EPHEMERIS_TYPE":"0","TIME_SYSTEM":"UTC","NORAD_CAT_ID":"46548","PERIAPSIS":"546.477","MEAN_ANOMALY":"260.9392","BSTAR":"0.00000735410000","CENTER_NAME":"EARTH","FILE":"3117438","ECCENTRICITY":"0.00011010","EPOCH":"2021-09-16T15:29:15.292032","ELEMENT_SET_NO":"999","GP_ID":"184851620","COUNTRY_CODE":"US","MEAN_MOTION":"15.06391682","SEMIMAJOR_AXIS":"6925.374","RA_OF_ASC_NODE":"316.6284","OBJECT_NAME":"STARLINK-1699","OBJECT_TYPE":"PAYLOAD","ARG_OF_PERICENTER":"99.1722","TLE_LINE1":"1 46548U 20070S   21259.64531588 -.00000172  00000-0  73541-5 0  9991","APOAPSIS":"548.002","SITE":"AFETR","REF_FRAME":"TEME","RCS_SIZE":"LARGE","MEAN_ELEMENT_THEORY":"SGP4","OBJECT_ID":"2020-070S","MEAN_MOTION_DDOT":"0.0000000000000","PERIOD":"95.593","CLASSIFICATION_TYPE":"U","TLE_LINE2":"2 46548  53.0565 316.6284 0001101  99.1722 260.9392 15.06391682 53062","LAUNCH_DATE":"2020-10-06"},{"NORAD_CAT_ID":"46549","TIME_SYSTEM":"UTC","REV_AT_EPOCH":"5304","INCLINATION":"53.0534","DECAY_DATE":null,"EPHEMERIS_TYPE":"0","MEAN_MOTION_DOT":"0.00001441","CENTER_NAME":"EARTH","FILE":"3117121","BSTAR":"0.00011564000000","PERIAPSIS":"546.733","MEAN_ANOMALY":"253.9683","ELEMENT_SET_NO":"999","ECCENTRICITY":"0.00007350","EPOCH":"2021-09-16T12:59:17.535552","MEAN_MOTION":"15.06390622","COUNTRY_CODE":"US","GP_ID":"184822166","SEMIMAJOR_AXIS":"6925.377","APOAPSIS":"547.751","REF_FRAME":"TEME","SITE":"AFETR","TLE_LINE1":"1 46549U 20070T   21259.54117518  .00001441  00000-0  11564-3 0  9998","OBJECT_TYPE":"PAYLOAD","OBJECT_NAME":"STARLINK-1700","ARG_OF_PERICENTER":"106.1387","RA_OF_ASC_NODE":"317.0953","TLE_LINE2":"2 46549  53.0534 317.0953 0000735 106.1387 253.9683 15.06390622 53041","LAUNCH_DATE":"2020-10-06","CLASSIFICATION_TYPE":"U","MEAN_MOTION_DDOT":"0.0000000000000","OBJECT_ID":"2020-070T","PERIOD":"95.593","RCS_SIZE":"LARGE","MEAN_ELEMENT_THEORY":"SGP4"},{"MEAN_MOTION":"15.06393712","COUNTRY_CODE":"US","GP_ID":"184822916","SEMIMAJOR_AXIS":"6925.368","SITE":"AFETR","REF_FRAME":"TEME","APOAPSIS":"547.718","TLE_LINE1":"1 46550U 20070U   21259.52736181  .00001175  00000-0  97736-4 0  9991","OBJECT_NAME":"STARLINK-1701","OBJECT_TYPE":"PAYLOAD","ARG_OF_PERICENTER":"127.9380","RA_OF_ASC_NODE":"317.1523","TLE_LINE2":"2 46550  53.0551 317.1523 0000701 127.9380 232.1673 15.06393712 53044","LAUNCH_DATE":"2020-10-06","CLASSIFICATION_TYPE":"U","PERIOD":"95.593","OBJECT_ID":"2020-070U","MEAN_MOTION_DDOT":"0.0000000000000","MEAN_ELEMENT_THEORY":"SGP4","RCS_SIZE":"LARGE","NORAD_CAT_ID":"46550","TIME_SYSTEM":"UTC","EPHEMERIS_TYPE":"0","DECAY_DATE":null,"INCLINATION":"53.0551","REV_AT_EPOCH":"5304","MEAN_MOTION_DOT":"0.00001175","FILE":"3117121","CENTER_NAME":"EARTH","BSTAR":"0.00009773600000","MEAN_ANOMALY":"232.1673","PERIAPSIS":"546.747","ELEMENT_SET_NO":"999","ECCENTRICITY":"0.00007010","EPOCH":"2021-09-16T12:39:24.060384"},{"CLASSIFICATION_TYPE":"U","LAUNCH_DATE":"2020-10-06","TLE_LINE2":"2 46552  53.0534 302.3415 0000920  88.3784 271.7310 15.06390184 53197","MEAN_ELEMENT_THEORY":"SGP4","RCS_SIZE":"LARGE","MEAN_MOTION_DDOT":"0.0000000000000","OBJECT_ID":"2020-070W","PERIOD":"95.593","TLE_LINE1":"1 46552U 20070W   21259.48636548  .00000776  00000-0  70984-4 0  9996","APOAPSIS":"547.881","REF_FRAME":"TEME","SITE":"AFETR","RA_OF_ASC_NODE":"302.3415","ARG_OF_PERICENTER":"88.3784","OBJECT_TYPE":"PAYLOAD","OBJECT_NAME":"STARLINK-1649","SEMIMAJOR_AXIS":"6925.379","MEAN_MOTION":"15.06390184","COUNTRY_CODE":"US","GP_ID":"184828133","ELEMENT_SET_NO":"999","ECCENTRICITY":"0.00009200","EPOCH":"2021-09-16T11:40:21.977472","BSTAR":"0.00007098400000","CENTER_NAME":"EARTH","FILE":"3117316","PERIAPSIS":"546.607","MEAN_ANOMALY":"271.7310","TIME_SYSTEM":"UTC","NORAD_CAT_ID":"46552","MEAN_MOTION_DOT":"0.00000776","REV_AT_EPOCH":"5319","EPHEMERIS_TYPE":"0","DECAY_DATE":null,"INCLINATION":"53.0534"},{"ELEMENT_SET_NO":"999","EPOCH":"2021-09-16T18:42:57.633408","ECCENTRICITY":"0.00007540","BSTAR":"-0.00001925200000","FILE":"3117438","CENTER_NAME":"EARTH","MEAN_ANOMALY":"271.6527","PERIAPSIS":"546.719","TIME_SYSTEM":"UTC","NORAD_CAT_ID":"46553","MEAN_MOTION_DOT":"-0.00000568","EPHEMERIS_TYPE":"0","DECAY_DATE":null,"INCLINATION":"53.0539","REV_AT_EPOCH":"5350","CLASSIFICATION_TYPE":"U","LAUNCH_DATE":"2020-10-06","TLE_LINE2":"2 46553  53.0539 286.0245 0000754  88.4548 271.6527 15.06391057 53500","MEAN_ELEMENT_THEORY":"SGP4","RCS_SIZE":"LARGE","PERIOD":"95.593","OBJECT_ID":"2020-070X","MEAN_MOTION_DDOT":"0.0000000000000","TLE_LINE1":"1 46553U 20070X   21259.77983372 -.00000568  00000-0 -19252-4 0  9991","REF_FRAME":"TEME","SITE":"AFETR","APOAPSIS":"547.763","RA_OF_ASC_NODE":"286.0245","OBJECT_NAME":"STARLINK-1664","OBJECT_TYPE":"PAYLOAD","ARG_OF_PERICENTER":"88.4548","SEMIMAJOR_AXIS":"6925.376","COUNTRY_CODE":"US","MEAN_MOTION":"15.06391057","GP_ID":"184852120"}];
